{
  "type": "FeatureCollection",
  "features": [
    {
      "type": "Feature",
      "properties": {
        "norad_id": 57400,
        "name": "TIANMU-1 08",
        "group": "weather",
        "lat": 77.44683285935037,
        "lon": 6.27730705104504,
        "alt_km": 469.1802497027793,
        "timestamp": "2025-12-17T19:34:07.688258+00:00",
        "meta_object_name": "TIANMU-1 08",
        "meta_object_id": "2023-101B",
        "meta_epoch": "2025-12-17T08:13:13.925856",
        "meta_mean_motion": 15.28120642,
        "meta_eccentricity": 0.00073791,
        "meta_inclination": 97.2864,
        "meta_ra_of_asc_node": 40.8885,
        "meta_arg_of_pericenter": 71.1477,
        "meta_mean_anomaly": 289.0562,
        "meta_ephemeris_type": 0,
        "meta_classification_type": "U",
        "meta_norad_cat_id": 57400,
        "meta_element_set_no": 999,
        "meta_rev_at_epoch": 13385,
        "meta_bstar": 0.00022070247,
        "meta_mean_motion_dot": 5.982e-05,
        "meta_mean_motion_ddot": 0,
        "tle_line1": "1 57400U 23101B   25351.34252229  .00005982  00000+0  22070-3 0  9995",
        "tle_line2": "2 57400  97.2864  40.8885 0007379  71.1477 289.0562 15.28120642133853"
      },
      "geometry": {
        "type": "Point",
        "coordinates": [
          6.27730705104504,
          77.44683285935037
        ]
      }
    },
    {
      "type": "Feature",
      "properties": {
        "norad_id": 57401,
        "name": "TIANMU-1 09",
        "group": "weather",
        "lat": 26.619113700417767,
        "lon": -135.46386368999768,
        "alt_km": 479.9027801301163,
        "timestamp": "2025-12-17T19:34:07.688268+00:00",
        "meta_object_name": "TIANMU-1 09",
        "meta_object_id": "2023-101C",
        "meta_epoch": "2025-12-17T07:54:04.167360",
        "meta_mean_motion": 15.28152367,
        "meta_eccentricity": 0.00066434,
        "meta_inclination": 97.2822,
        "meta_ra_of_asc_node": 40.3864,
        "meta_arg_of_pericenter": 71.3478,
        "meta_mean_anomaly": 288.8483,
        "meta_ephemeris_type": 0,
        "meta_classification_type": "U",
        "meta_norad_cat_id": 57401,
        "meta_element_set_no": 999,
        "meta_rev_at_epoch": 13385,
        "meta_bstar": 0.00021908926,
        "meta_mean_motion_dot": 5.943e-05,
        "meta_mean_motion_ddot": 0,
        "tle_line1": "1 57401U 23101C   25351.32921490  .00005943  00000+0  21909-3 0  9994",
        "tle_line2": "2 57401  97.2822  40.3864 0006643  71.3478 288.8483 15.28152367133854"
      },
      "geometry": {
        "type": "Point",
        "coordinates": [
          -135.46386368999768,
          26.619113700417767
        ]
      }
    },
    {
      "type": "Feature",
      "properties": {
        "norad_id": 57402,
        "name": "TIANMU-1 10",
        "group": "weather",
        "lat": -35.1364435563411,
        "lon": 46.88589783461239,
        "alt_km": 489.0715995526225,
        "timestamp": "2025-12-17T19:34:07.688280+00:00",
        "meta_object_name": "TIANMU-1 10",
        "meta_object_id": "2023-101D",
        "meta_epoch": "2025-12-17T07:09:04.804128",
        "meta_mean_motion": 15.28143308,
        "meta_eccentricity": 0.00083936,
        "meta_inclination": 97.2903,
        "meta_ra_of_asc_node": 41.2105,
        "meta_arg_of_pericenter": 70.3707,
        "meta_mean_anomaly": 289.8438,
        "meta_ephemeris_type": 0,
        "meta_classification_type": "U",
        "meta_norad_cat_id": 57402,
        "meta_element_set_no": 999,
        "meta_rev_at_epoch": 13384,
        "meta_bstar": 0.00022865051,
        "meta_mean_motion_dot": 6.206e-05,
        "meta_mean_motion_ddot": 0,
        "tle_line1": "1 57402U 23101D   25351.29797227  .00006206  00000+0  22865-3 0  9995",
        "tle_line2": "2 57402  97.2903  41.2105 0008393  70.3707 289.8438 15.28143308133846"
      },
      "geometry": {
        "type": "Point",
        "coordinates": [
          46.88589783461239,
          -35.1364435563411
        ]
      }
    },
    {
      "type": "Feature",
      "properties": {
        "norad_id": 57490,
        "name": "FENGYUN 3F",
        "group": "weather",
        "lat": 49.45968183251972,
        "lon": 49.704146610061954,
        "alt_km": 820.899184708669,
        "timestamp": "2025-12-17T19:34:07.688291+00:00",
        "meta_object_name": "FENGYUN 3F",
        "meta_object_id": "2023-111A",
        "meta_epoch": "2025-12-17T07:29:39.992352",
        "meta_mean_motion": 14.19894738,
        "meta_eccentricity": 7.127e-05,
        "meta_inclination": 98.7079,
        "meta_ra_of_asc_node": 59.5318,
        "meta_arg_of_pericenter": 109.2248,
        "meta_mean_anomaly": 250.9005,
        "meta_ephemeris_type": 0,
        "meta_classification_type": "U",
        "meta_norad_cat_id": 57490,
        "meta_element_set_no": 999,
        "meta_rev_at_epoch": 12305,
        "meta_bstar": 4.9040196e-05,
        "meta_mean_motion_dot": 6e-07,
        "meta_mean_motion_ddot": 0,
        "tle_line1": "1 57490U 23111A   25351.31226843  .00000060  00000+0  49040-4 0  9994",
        "tle_line2": "2 57490  98.7079  59.5318 0000712 109.2248 250.9005 14.19894738123050"
      },
      "geometry": {
        "type": "Point",
        "coordinates": [
          49.704146610061954,
          49.45968183251972
        ]
      }
    },
    {
      "type": "Feature",
      "properties": {
        "norad_id": 58584,
        "name": "ARKTIKA-M 2",
        "group": "weather",
        "lat": 3.3062879424645986,
        "lon": 176.00028304805608,
        "alt_km": 8689.388971896176,
        "timestamp": "2025-12-17T19:34:07.688303+00:00",
        "meta_object_name": "ARKTIKA-M 2",
        "meta_object_id": "2023-198A",
        "meta_epoch": "2025-12-15T07:41:54.278304",
        "meta_mean_motion": 2.00603484,
        "meta_eccentricity": 0.68650912,
        "meta_inclination": 63.2249,
        "meta_ra_of_asc_node": 174.6089,
        "meta_arg_of_pericenter": 268.096,
        "meta_mean_anomaly": 18.8351,
        "meta_ephemeris_type": 0,
        "meta_classification_type": "U",
        "meta_norad_cat_id": 58584,
        "meta_element_set_no": 999,
        "meta_rev_at_epoch": 1463,
        "meta_bstar": 0,
        "meta_mean_motion_dot": 2.02e-06,
        "meta_mean_motion_ddot": 0,
        "tle_line1": "1 58584U 23198A   25349.32076711  .00000202  00000+0  00000+0 0  9995",
        "tle_line2": "2 58584  63.2249 174.6089 6865091 268.0960  18.8351  2.00603484 14636"
      },
      "geometry": {
        "type": "Point",
        "coordinates": [
          176.00028304805608,
          3.3062879424645986
        ]
      }
    },
    {
      "type": "Feature",
      "properties": {
        "norad_id": 58645,
        "name": "TIANMU-1 11",
        "group": "weather",
        "lat": 77.88768926059194,
        "lon": -25.68632736313074,
        "alt_km": 489.11505089748425,
        "timestamp": "2025-12-17T19:34:07.688316+00:00",
        "meta_object_name": "TIANMU-1 11",
        "meta_object_id": "2023-205A",
        "meta_epoch": "2025-12-17T08:11:29.595264",
        "meta_mean_motion": 15.24655978,
        "meta_eccentricity": 0.00076407,
        "meta_inclination": 97.3602,
        "meta_ra_of_asc_node": 10.8841,
        "meta_arg_of_pericenter": 291.108,
        "meta_mean_anomaly": 68.934,
        "meta_ephemeris_type": 0,
        "meta_classification_type": "U",
        "meta_norad_cat_id": 58645,
        "meta_element_set_no": 999,
        "meta_rev_at_epoch": 10979,
        "meta_bstar": 0.00021753045,
        "meta_mean_motion_dot": 5.305e-05,
        "meta_mean_motion_ddot": 0,
        "tle_line1": "1 58645U 23205A   25351.34131476  .00005305  00000+0  21753-3 0  9998",
        "tle_line2": "2 58645  97.3602  10.8841 0007640 291.1080  68.9340 15.24655978109795"
      },
      "geometry": {
        "type": "Point",
        "coordinates": [
          -25.68632736313074,
          77.88768926059194
        ]
      }
    },
    {
      "type": "Feature",
      "properties": {
        "norad_id": 58646,
        "name": "TIANMU-1 12",
        "group": "weather",
        "lat": -68.36480171298085,
        "lon": 30.16985246537586,
        "alt_km": 495.7586282785969,
        "timestamp": "2025-12-17T19:34:07.688326+00:00",
        "meta_object_name": "TIANMU-1 12",
        "meta_object_id": "2023-205B",
        "meta_epoch": "2025-12-17T05:41:46.353120",
        "meta_mean_motion": 15.24539191,
        "meta_eccentricity": 0.00057659,
        "meta_inclination": 97.3589,
        "meta_ra_of_asc_node": 10.586,
        "meta_arg_of_pericenter": 270.8569,
        "meta_mean_anomaly": 89.2008,
        "meta_ephemeris_type": 0,
        "meta_classification_type": "U",
        "meta_norad_cat_id": 58646,
        "meta_element_set_no": 999,
        "meta_rev_at_epoch": 10976,
        "meta_bstar": 0.0002061028,
        "meta_mean_motion_dot": 5.003e-05,
        "meta_mean_motion_ddot": 0,
        "tle_line1": "1 58646U 23205B   25351.23734205  .00005003  00000+0  20610-3 0  9992",
        "tle_line2": "2 58646  97.3589  10.5860 0005765 270.8569  89.2008 15.24539191109762"
      },
      "geometry": {
        "type": "Point",
        "coordinates": [
          30.16985246537586,
          -68.36480171298085
        ]
      }
    }
  ]
}